[
    {
        "Altitude(m)": 617719.7364240997,
        "Argument of Periapsis(deg)": 0.0,
        "Eccentricity": 0.0,
        "Inclination(deg)": 60.0,
        "Latitude(deg)": -41.102546655863854,
        "Longitude(deg)": 155.09455391989195,
        "Mean Anomaly(deg)": 229.09089999999998,
        "RAAN(deg)": 45.0,
        "Satellite Name": "Test1 212",
        "Satellite Number": 212,
        "Semi-Major Axis(m)": 6980739.136638005,
        "Time(s)": 0
    },
    {
        "Altitude(m)": 617911.2726078667,
        "Argument of Periapsis(deg)": 0.00010418945913296404,
        "Eccentricity": 0.0,
        "Inclination(deg)": 60.0,
        "Latitude(deg)": -41.5657395903164,
        "Longitude(deg)": 155.59895821731712,
        "Mean Anomaly(deg)": 229.71100614546188,
        "RAAN(deg)": 44.99957995086026,
        "Satellite Name": "Test1 212",
        "Satellite Number": 212,
        "Semi-Major Axis(m)": 6980739.136638005,
        "Time(s)": 10
    }
]